NORAD_CAT_ID,OBJECT_NAME,OBJECT_TYPE,EPOCH,MEAN_MOTION,ECCENTRICITY,INCLINATION,RA_OF_ASC_NODE,ARG_OF_PERICENTER,MEAN_ANOMALY,BSTAR,MEAN_MOTION_DOT,MEAN_MOTION_DDOT,TLE_LINE0,TLE_LINE1,TLE_LINE2,SEMIMAJOR_AXIS,PERIOD,APOGEE,PERIGEE,DECAYED
54165.0,STARLINK-5279,PAYLOAD,2024-01-12 03:14:59,15.08846026,0.0001475,53.2183,309.5673,69.5079,290.6071,7.707e-06,-1.65e-06,0.0,0 STARLINK-5279,1 54165U 22141J   24012.13541317 -.00000165  00000-0  77070-5 0  9994,2 54165  53.2183 309.5673 0001475  69.5079 290.6071 15.08846026 66828,6917.862,95.437,540.747,538.707,0.0
54165.0,STARLINK-5279,PAYLOAD,2024-01-12 04:50:22,15.08850148,0.0001385,53.2184,309.2691,84.5874,275.5276,4.0891e-05,3.63e-06,0.0,0 STARLINK-5279,1 54165U 22141J   24012.20164891  .00000363  00000-0  40891-4 0  9999,2 54165  53.2184 309.2691 0001385  84.5874 275.5276 15.08850148 66836,6917.849,95.437,540.672,538.756,0.0
54165.0,STARLINK-5279,PAYLOAD,2024-01-12 19:08:51,15.08831978,0.0001252,53.2182,306.5944,108.6349,251.4779,9.3959e-05,1.208e-05,0.0,0 STARLINK-5279,1 54165U 22141J   24012.79781971  .00001208  00000-0  93959-4 0  9999,2 54165  53.2182 306.5944 0001252 108.6349 251.4779 15.08831978 66924,6917.905,95.438,540.636,538.904,0.0
54165.0,STARLINK-5279,PAYLOAD,2024-01-12 20:44:14,15.08833374,0.0001187,53.2183,306.2949,107.6574,252.4548,4.0437e-05,3.56e-06,0.0,0 STARLINK-5279,1 54165U 22141J   24012.86406022  .00000356  00000-0  40437-4 0  9994,2 54165  53.2183 306.2949 0001187 107.6574 252.4548 15.08833374 66931,6917.901,95.438,540.587,538.944,0.0
54165.0,STARLINK-5279,PAYLOAD,2024-01-13 04:41:09,15.0884676,0.0001317,53.218,304.8088,93.7744,266.3398,0.00017465,2.493e-05,0.0,0 STARLINK-5279,1 54165U 22141J   24013.19525039  .00002493  00000-0  17465-3 0  9999,2 54165  53.2180 304.8088 0001317  93.7744 266.3398 15.08846760 66980,6917.86,95.437,540.636,538.814,0.0
54165.0,STARLINK-5279,PAYLOAD,2024-01-13 18:59:38,15.08837664,0.0001354,53.2181,302.1309,95.0621,265.0526,-2.0337e-05,-6.12e-06,0.0,0 STARLINK-5279,1 54165U 22141J   24013.79141929 -.00000612  00000-0 -20337-4 0  9993,2 54165  53.2181 302.1309 0001354  95.0621 265.0526 15.08837664 67071,6917.888,95.438,540.689,538.816,0.0
54165.0,STARLINK-5279,PAYLOAD,2024-01-14 01:21:10,15.08844114,0.0001736,53.2181,300.9425,112.6313,247.4863,8.01e-05,9.87e-06,0.0,0 STARLINK-5279,1 54165U 22141J   24014.05637492  .00000987  00000-0  80100-4 0  9995,2 54165  53.2181 300.9425 0001736 112.6313 247.4863 15.08844114 67115,6917.868,95.437,540.934,538.532,0.0
54165.0,STARLINK-5279,PAYLOAD,2024-01-14 22:01:11,15.08845778,0.000164,53.217,297.0798,87.403,272.715,0.00016,2.26e-05,0.0,0 STARLINK-5279,1 54165U 22141J   24014.91749753  .00002260  00000-0  16000-3 0  9997,2 54165  53.2170 297.0798 0001640  87.4030 272.7150 15.08845778 67242,6917.863,95.437,540.862,538.593,0.0
54165.0,STARLINK-5279,PAYLOAD,2024-01-15 04:22:44,15.08851425,0.0001609,53.2178,295.8905,86.9476,273.1701,0.00022887,3.357e-05,0.0,0 STARLINK-5279,1 54165U 22141J   24015.18245421  .00003357  00000-0  22887-3 0  9998,2 54165  53.2178 295.8905 0001609  86.9476 273.1701 15.08851425 67286,6917.845,95.437,540.824,538.597,0.0
54165.0,STARLINK-5279,PAYLOAD,2024-01-15 23:27:22,15.0883641,0.000164,53.2172,292.323,78.5556,281.562,2.7348e-05,1.47e-06,0.0,0 STARLINK-5279,1 54165U 22141J   24015.97734253  .00000147  00000-0  27348-4 0  9993,2 54165  53.2172 292.3230 0001640  78.5556 281.5620 15.08836410 67408,6917.891,95.438,540.891,538.622,0.0
54165.0,STARLINK-5279,PAYLOAD,2024-01-16 04:13:31,15.08843132,0.0001664,53.2167,291.4278,106.3134,253.8041,0.00011536,1.549e-05,0.0,0 STARLINK-5279,1 54165U 22141J   24016.17605767  .00001549  00000-0  11536-3 0  9991,2 54165  53.2167 291.4278 0001664 106.3134 253.8041 15.08843132 67433,6917.871,95.437,540.887,538.585,0.0
54165.0,STARLINK-5279,PAYLOAD,2024-01-16 21:42:45,15.08847475,0.0001635,53.2163,288.1558,104.5618,255.5555,0.00012797,1.75e-05,0.0,0 STARLINK-5279,1 54165U 22141J   24016.90469498  .00001750  00000-0  12797-3 0  9995,2 54165  53.2163 288.1558 0001635 104.5618 255.5555 15.08847475 67543,6917.858,95.437,540.854,538.591,0.0
54165.0,STARLINK-5279,PAYLOAD,2024-01-17 00:53:31,15.08850635,0.0001705,53.217,287.5598,111.1807,248.9367,0.00019777,2.862e-05,0.0,0 STARLINK-5279,1 54165U 22141J   24017.03717313  .00002862  00000-0  19777-3 0  9992,2 54165  53.2170 287.5598 0001705 111.1807 248.9367 15.08850635 67561,6917.848,95.437,540.892,538.533,0.0
54165.0,STARLINK-5279,PAYLOAD,2024-01-17 21:33:33,15.08837917,0.0001685,53.2165,283.6957,109.0341,251.0834,3.9481e-05,3.4e-06,0.0,0 STARLINK-5279,1 54165U 22141J   24017.89829987  .00000340  00000-0  39481-4 0  9991,2 54165  53.2165 283.6957 0001685 109.0341 251.0834 15.08837917 67693,6917.887,95.438,540.917,538.586,0.0
54165.0,STARLINK-5279,PAYLOAD,2024-01-18 03:55:05,15.08836453,0.0001686,53.2168,282.5063,110.9677,249.1496,4.7397e-06,-2.13e-06,0.0,0 STARLINK-5279,1 54165U 22141J   24018.16326062 -.00000213  00000-0  47397-5 0  9994,2 54165  53.2168 282.5063 0001686 110.9677 249.1496 15.08836453 67737,6917.891,95.438,540.923,538.59,0.0
54165.0,STARLINK-5279,PAYLOAD,2024-01-18 21:24:20,15.08837887,0.0001623,53.2173,279.2357,110.4704,249.6462,-3.5559e-05,-8.54e-06,0.0,0 STARLINK-5279,1 54165U 22141J   24018.89190297 -.00000854  00000-0 -35559-4 0  9991,2 54165  53.2173 279.2357 0001623 110.4704 249.6462 15.08837887 67841,6917.887,95.438,540.875,538.629,0.0
54165.0,STARLINK-5279,PAYLOAD,2024-01-19 02:10:29,15.08845929,0.0001578,53.217,278.3425,103.8583,256.2585,0.00010335,1.357e-05,0.0,0 STARLINK-5279,1 54165U 22141J   24019.09061971  .00001357  00000-0  10335-3 0  9991,2 54165  53.2170 278.3425 0001578 103.8583 256.2585 15.08845929 67873,6917.862,95.437,540.819,538.636,0.0
54165.0,STARLINK-5279,PAYLOAD,2024-01-19 22:50:30,15.08838207,0.0001624,53.2173,274.4779,100.9232,259.1943,0.00010566,1.394e-05,0.0,0 STARLINK-5279,1 54165U 22141J   24019.95174595  .00001394  00000-0  10566-3 0  9990,2 54165  53.2173 274.4779 0001624 100.9232 259.1943 15.08838207 68003,6917.886,95.438,540.874,538.627,0.0
54165.0,STARLINK-5279,PAYLOAD,2024-01-20 02:01:17,15.08842031,0.0001605,53.2174,273.8821,91.179,268.9386,0.00019864,2.875e-05,0.0,0 STARLINK-5279,1 54165U 22141J   24020.08422476  .00002875  00000-0  19864-3 0  9995,2 54165  53.2174 273.8821 0001605  91.1790 268.9386 15.08842031 68025,6917.874,95.437,540.849,538.629,0.0
54165.0,STARLINK-5279,PAYLOAD,2024-01-20 16:19:45,15.08839044,0.0001592,53.2163,271.2114,73.1714,286.9453,0.00016036,2.265e-05,0.0,0 STARLINK-5279,1 54165U 22141J   24020.68038883  .00002265  00000-0  16036-3 0  9997,2 54165  53.2163 271.2114 0001592  73.1714 286.9453 15.08839044 68116,6917.883,95.438,540.85,538.647,0.0
54165.0,STARLINK-5279,PAYLOAD,2024-01-20 22:41:18,15.08841627,0.0001665,53.2163,270.0205,73.949,286.1685,5.0172e-05,5.11e-06,0.0,0 STARLINK-5279,1 54165U 22141J   24020.94534819  .00000511  00000-0  50172-4 0  9998,2 54165  53.2163 270.0205 0001665  73.9490 286.1685 15.08841627 68157,6917.875,95.437,540.892,538.589,0.0
54165.0,STARLINK-5279,PAYLOAD,2024-01-21 01:52:03,15.08848995,0.0001492,53.2165,269.4234,89.0029,271.1134,0.00014895,2.084e-05,0.0,0 STARLINK-5279,1 54165U 22141J   24021.07782244  .00002084  00000-0  14895-3 0  9998,2 54165  53.2165 269.4234 0001492  89.0029 271.1134 15.08848995 68177,6917.853,95.437,540.75,538.686,0.0
54165.0,STARLINK-5279,PAYLOAD,2024-01-21 22:32:05,15.08833818,0.0001544,53.2188,265.5514,83.1404,276.9764,0.00025177,3.721e-05,0.0,0 STARLINK-5279,1 54165U 22141J   24021.93895114  .00003721  00000-0  25177-3 0  9998,2 54165  53.2188 265.5514 0001544  83.1404 276.9764 15.08833818 68305,6917.899,95.438,540.832,538.696,0.0
54165.0,STARLINK-5279,PAYLOAD,2024-01-22 22:22:52,15.08844606,0.0001492,53.2173,261.0949,104.011,256.1048,8.4727e-05,1.061e-05,0.0,0 STARLINK-5279,1 54165U 22141J   24022.93254644  .00001061  00000-0  84727-4 0  9998,2 54165  53.2173 261.0949 0001492 104.0110 256.1048 15.08844606 68459,6917.866,95.437,540.763,538.699,0.0
54165.0,STARLINK-5279,PAYLOAD,2024-01-23 22:13:38,15.08846864,0.0001457,53.2168,256.6408,93.1874,266.9285,0.00015724,2.216e-05,0.0,0 STARLINK-5279,1 54165U 22141J   24023.92614514  .00002216  00000-0  15724-3 0  9997,2 54165  53.2168 256.6408 0001457  93.1874 266.9285 15.08846864 68606,6917.859,95.437,540.732,538.716,0.0
54165.0,STARLINK-5279,PAYLOAD,2024-01-24 20:29:02,15.08842258,0.0001572,53.2158,252.4761,112.6537,247.4621,2.9287e-05,1.78e-06,0.0,0 STARLINK-5279,1 54165U 22141J   24024.85350611  .00000178  00000-0  29287-4 0  9990,2 54165  53.2158 252.4761 0001572 112.6537 247.4621 15.08842258 68748,6917.873,95.437,540.826,538.651,0.0
54165.0,STARLINK-5279,PAYLOAD,2024-01-25 20:19:50,15.08841131,0.000142,53.2171,248.0157,109.3633,250.7513,1.9544e-05,2.3e-07,0.0,0 STARLINK-5279,1 54165U 22141J   24025.84711133  .00000023  00000-0  19544-4 0  9994,2 54165  53.2171 248.0157 0001420 109.3633 250.7513 15.08841131 68897,6917.877,95.437,540.724,538.76,0.0
54165.0,STARLINK-5279,PAYLOAD,2024-01-25 21:55:13,15.08840906,0.0001356,53.2169,247.7176,104.9187,255.1955,1.1991e-05,-9.7e-07,0.0,0 STARLINK-5279,1 54165U 22141J   24025.91335145 -.00000097  00000-0  11991-4 0  9997,2 54165  53.2169 247.7176 0001356 104.9187 255.1955 15.08840906 68904,6917.878,95.437,540.681,538.805,0.0
54165.0,STARLINK-5279,PAYLOAD,2024-01-26 21:46:00,15.0884507,0.0001288,53.2167,243.2557,85.1627,274.9512,0.00017814,2.549e-05,0.0,0 STARLINK-5279,1 54165U 22141J   24026.90694730  .00002549  00000-0  17814-3 0  9997,2 54165  53.2167 243.2557 0001288  85.1627 274.9512 15.08845070 69051,6917.865,95.437,540.621,538.839,0.0
54165.0,STARLINK-5279,PAYLOAD,2024-01-27 13:39:51,15.08844667,0.0001281,53.2164,240.2858,82.9092,277.2046,0.00012716,1.737e-05,0.0,0 STARLINK-5279,1 54165U 22141J   24027.56934976  .00001737  00000-0  12716-3 0  9993,2 54165  53.2164 240.2858 0001281  82.9092 277.2046 15.08844667 69153,6917.866,95.437,540.617,538.845,0.0
